{"fetched_at":"2026-07-24T07:06:43.167Z","source":"https://celestrak.org/NORAD/elements/gp.php?NAME=O3B&FORMAT=JSON","constellation":"o3b-mpower","records":[{"OBJECT_NAME":"O3B MPOWER F1","OBJECT_ID":"2022-174A","EPOCH":"2026-07-23T19:35:17.215008","CLASSIFICATION_TYPE":"U","MEAN_MOTION":5.00114797,"ECCENTRICITY":0.0006691,"INCLINATION":0.0484,"RA_OF_ASC_NODE":338.7873,"ARG_OF_PERICENTER":153.2058,"MEAN_ANOMALY":35.0487,"EPHEMERIS_TYPE":0,"NORAD_CAT_ID":54755,"ELEMENT_SET_NO":999,"REV_AT_EPOCH":6719,"BSTAR":0,"MEAN_MOTION_DOT":-2.4e-7,"MEAN_MOTION_DDOT":0},{"OBJECT_NAME":"O3B MPOWER F2","OBJECT_ID":"2022-174B","EPOCH":"2026-07-23T06:58:08.845824","CLASSIFICATION_TYPE":"U","MEAN_MOTION":5.00114951,"ECCENTRICITY":0.0005776,"INCLINATION":0.0444,"RA_OF_ASC_NODE":339.7154,"ARG_OF_PERICENTER":135.6927,"MEAN_ANOMALY":244.6495,"EPHEMERIS_TYPE":0,"NORAD_CAT_ID":54756,"ELEMENT_SET_NO":999,"REV_AT_EPOCH":6725,"BSTAR":0,"MEAN_MOTION_DOT":-2.4e-7,"MEAN_MOTION_DDOT":0},{"OBJECT_NAME":"O3B MPOWER F4","OBJECT_ID":"2023-059A","EPOCH":"2026-07-23T08:30:37.489248","CLASSIFICATION_TYPE":"U","MEAN_MOTION":5.0011539,"ECCENTRICITY":0.0007738,"INCLINATION":0.0628,"RA_OF_ASC_NODE":348.6084,"ARG_OF_PERICENTER":135.4587,"MEAN_ANOMALY":236.0042,"EPHEMERIS_TYPE":0,"NORAD_CAT_ID":56367,"ELEMENT_SET_NO":999,"REV_AT_EPOCH":6041,"BSTAR":0,"MEAN_MOTION_DOT":-2.4e-7,"MEAN_MOTION_DDOT":0},{"OBJECT_NAME":"O3B MPOWER F3","OBJECT_ID":"2023-059B","EPOCH":"2026-07-23T14:06:09.118656","CLASSIFICATION_TYPE":"U","MEAN_MOTION":5.00116508,"ECCENTRICITY":0.0006644,"INCLINATION":0.0635,"RA_OF_ASC_NODE":347.7104,"ARG_OF_PERICENTER":130.2131,"MEAN_ANOMALY":242.1416,"EPHEMERIS_TYPE":0,"NORAD_CAT_ID":56368,"ELEMENT_SET_NO":999,"REV_AT_EPOCH":5654,"BSTAR":0,"MEAN_MOTION_DOT":-2.4e-7,"MEAN_MOTION_DDOT":0},{"OBJECT_NAME":"O3B MPOWER F5","OBJECT_ID":"2023-175A","EPOCH":"2026-07-23T11:43:45.528096","CLASSIFICATION_TYPE":"U","MEAN_MOTION":5.00115876,"ECCENTRICITY":0.000561,"INCLINATION":0.0534,"RA_OF_ASC_NODE":8.3291,"ARG_OF_PERICENTER":132.0862,"MEAN_ANOMALY":219.6235,"EPHEMERIS_TYPE":0,"NORAD_CAT_ID":58346,"ELEMENT_SET_NO":999,"REV_AT_EPOCH":5125,"BSTAR":0,"MEAN_MOTION_DOT":-2.4e-7,"MEAN_MOTION_DDOT":0},{"OBJECT_NAME":"O3B MPOWER F6","OBJECT_ID":"2023-175B","EPOCH":"2026-07-23T14:08:27.018240","CLASSIFICATION_TYPE":"U","MEAN_MOTION":5.00115782,"ECCENTRICITY":0.0004432,"INCLINATION":0.0547,"RA_OF_ASC_NODE":359.9755,"ARG_OF_PERICENTER":120.9896,"MEAN_ANOMALY":239.0764,"EPHEMERIS_TYPE":0,"NORAD_CAT_ID":58347,"ELEMENT_SET_NO":999,"REV_AT_EPOCH":5017,"BSTAR":0,"MEAN_MOTION_DOT":-2.4e-7,"MEAN_MOTION_DDOT":0},{"OBJECT_NAME":"O3B MPOWER F7","OBJECT_ID":"2024-244A","EPOCH":"2026-07-23T15:44:04.583040","CLASSIFICATION_TYPE":"U","MEAN_MOTION":5.00115456,"ECCENTRICITY":0.0005918,"INCLINATION":0.0654,"RA_OF_ASC_NODE":341.2607,"ARG_OF_PERICENTER":136.1311,"MEAN_ANOMALY":242.6662,"EPHEMERIS_TYPE":0,"NORAD_CAT_ID":62362,"ELEMENT_SET_NO":999,"REV_AT_EPOCH":2835,"BSTAR":0,"MEAN_MOTION_DOT":-2.4e-7,"MEAN_MOTION_DDOT":0},{"OBJECT_NAME":"O3B MPOWER F8","OBJECT_ID":"2024-244B","EPOCH":"2026-07-23T10:08:39.052608","CLASSIFICATION_TYPE":"U","MEAN_MOTION":5.00115069,"ECCENTRICITY":0.0005671,"INCLINATION":0.0156,"RA_OF_ASC_NODE":13.2781,"ARG_OF_PERICENTER":97.1861,"MEAN_ANOMALY":249.5946,"EPHEMERIS_TYPE":0,"NORAD_CAT_ID":62363,"ELEMENT_SET_NO":999,"REV_AT_EPOCH":2268,"BSTAR":0,"MEAN_MOTION_DOT":-2.4e-7,"MEAN_MOTION_DDOT":0},{"OBJECT_NAME":"O3B MPOWER F9","OBJECT_ID":"2025-153A","EPOCH":"2026-07-23T08:32:42.162720","CLASSIFICATION_TYPE":"U","MEAN_MOTION":5.00115699,"ECCENTRICITY":0.0006811,"INCLINATION":0.0622,"RA_OF_ASC_NODE":4.1855,"ARG_OF_PERICENTER":134.9279,"MEAN_ANOMALY":220.9355,"EPHEMERIS_TYPE":0,"NORAD_CAT_ID":64866,"ELEMENT_SET_NO":999,"REV_AT_EPOCH":2137,"BSTAR":0,"MEAN_MOTION_DOT":-2.4e-7,"MEAN_MOTION_DDOT":0},{"OBJECT_NAME":"O3B MPOWER F10","OBJECT_ID":"2025-153B","EPOCH":"2026-07-23T12:31:40.918368","CLASSIFICATION_TYPE":"U","MEAN_MOTION":5.00114992,"ECCENTRICITY":0.0002638,"INCLINATION":0.0591,"RA_OF_ASC_NODE":0.9682,"ARG_OF_PERICENTER":246.958,"MEAN_ANOMALY":112.0436,"EPHEMERIS_TYPE":0,"NORAD_CAT_ID":64867,"ELEMENT_SET_NO":999,"REV_AT_EPOCH":2385,"BSTAR":0,"MEAN_MOTION_DOT":-2.4e-7,"MEAN_MOTION_DDOT":0}]}
