O3B MPOWER F1           
1 54755U 22174A   26204.81617147 -.00000024  00000+0  00000+0 0  9996
2 54755   0.0484 338.7873 0006691 153.2058  35.0487  5.00114797 67193
O3B MPOWER F2           
1 54756U 22174B   26204.29038016 -.00000024  00000+0  00000+0 0  9991
2 54756   0.0444 339.7154 0005776 135.6927 244.6495  5.00114951 67251
O3B MPOWER F4           
1 56367U 23059A   26204.35460057 -.00000024  00000+0  00000+0 0  9995
2 56367   0.0628 348.6084 0007738 135.4587 236.0042  5.00115390 60418
O3B MPOWER F3           
1 56368U 23059B   26204.58760554 -.00000024  00000+0  00000+0 0  9996
2 56368   0.0635 347.7104 0006644 130.2131 242.1416  5.00116508 56547
O3B MPOWER F5           
1 58346U 23175A   26204.48872139 -.00000024  00000+0  00000+0 0  9995
2 58346   0.0534   8.3291 0005610 132.0862 219.6235  5.00115876 51251
O3B MPOWER F6           
1 58347U 23175B   26204.58920160 -.00000024  00000+0  00000+0 0  9995
2 58347   0.0547 359.9755 0004432 120.9896 239.0764  5.00115782 50179
O3B MPOWER F7           
1 62362U 24244A   26204.65560860 -.00000024  00000+0  00000+0 0  9990
2 62362   0.0654 341.2607 0005918 136.1311 242.6662  5.00115456 28351
O3B MPOWER F8           
1 62363U 24244B   26204.42267422 -.00000024  00000+0  00000+0 0  9994
2 62363   0.0156  13.2781 0005671  97.1861 249.5946  5.00115069 22681
O3B MPOWER F9           
1 64866U 25153A   26204.35604355 -.00000024  00000+0  00000+0 0  9996
2 64866   0.0622   4.1855 0006811 134.9279 220.9355  5.00115699 21371
O3B MPOWER F10          
1 64867U 25153B   26204.52200137 -.00000024  00000+0  00000+0 0  9996
2 64867   0.0591   0.9682 0002638 246.9580 112.0436  5.00114992 23852
